[{"OBJECT_NAME":"FLOCK 4H-15","OBJECT_ID":"2025-276BE","EPOCH":"2026-04-27T04:51:19.323072","MEAN_MOTION":15.1898447,"ECCENTRICITY":0.0004601,"INCLINATION":97.4237,"RA_OF_ASC_NODE":191.5673,"ARG_OF_PERICENTER":173.4513,"MEAN_ANOMALY":186.6782,"EPHEMERIS_TYPE":0,"CLASSIFICATION_TYPE":"U","NORAD_CAT_ID":66718,"ELEMENT_SET_NO":999,"REV_AT_EPOCH":2267,"BSTAR":0.0003775,"MEAN_MOTION_DOT":7.833e-5,"MEAN_MOTION_DDOT":0},{"OBJECT_NAME":"FLOCK 4H-16","OBJECT_ID":"2025-276BF","EPOCH":"2026-04-27T04:29:52.435680","MEAN_MOTION":15.19182277,"ECCENTRICITY":0.0004919,"INCLINATION":97.4253,"RA_OF_ASC_NODE":191.6184,"ARG_OF_PERICENTER":163.0941,"MEAN_ANOMALY":197.0459,"EPHEMERIS_TYPE":0,"CLASSIFICATION_TYPE":"U","NORAD_CAT_ID":66719,"ELEMENT_SET_NO":999,"REV_AT_EPOCH":2267,"BSTAR":0.00037793,"MEAN_MOTION_DOT":7.887e-5,"MEAN_MOTION_DDOT":0},{"OBJECT_NAME":"FLOCK 4H-18","OBJECT_ID":"2025-276BH","EPOCH":"2026-04-27T04:35:33.026208","MEAN_MOTION":15.19164406,"ECCENTRICITY":0.000384,"INCLINATION":97.4195,"RA_OF_ASC_NODE":191.5001,"ARG_OF_PERICENTER":181.1659,"MEAN_ANOMALY":178.9567,"EPHEMERIS_TYPE":0,"CLASSIFICATION_TYPE":"U","NORAD_CAT_ID":66721,"ELEMENT_SET_NO":999,"REV_AT_EPOCH":2267,"BSTAR":0.0003699,"MEAN_MOTION_DOT":7.713e-5,"MEAN_MOTION_DDOT":0},{"OBJECT_NAME":"FLOCK 4H-19","OBJECT_ID":"2025-276BJ","EPOCH":"2026-04-27T04:33:30.454848","MEAN_MOTION":15.20468815,"ECCENTRICITY":0.0003278,"INCLINATION":97.4196,"RA_OF_ASC_NODE":191.8111,"ARG_OF_PERICENTER":105.9734,"MEAN_ANOMALY":254.1862,"EPHEMERIS_TYPE":0,"CLASSIFICATION_TYPE":"U","NORAD_CAT_ID":66722,"ELEMENT_SET_NO":999,"REV_AT_EPOCH":2198,"BSTAR":0.0003377,"MEAN_MOTION_DOT":7.308e-5,"MEAN_MOTION_DDOT":0},{"OBJECT_NAME":"FLOCK 4H-20","OBJECT_ID":"2025-276BK","EPOCH":"2026-04-27T04:46:13.341792","MEAN_MOTION":15.20550762,"ECCENTRICITY":0.0004183,"INCLINATION":97.4233,"RA_OF_ASC_NODE":191.8727,"ARG_OF_PERICENTER":113.4263,"MEAN_ANOMALY":246.7412,"EPHEMERIS_TYPE":0,"CLASSIFICATION_TYPE":"U","NORAD_CAT_ID":66723,"ELEMENT_SET_NO":999,"REV_AT_EPOCH":2194,"BSTAR":0.00040684,"MEAN_MOTION_DOT":8.841e-5,"MEAN_MOTION_DDOT":0},{"OBJECT_NAME":"FLOCK 4H-21","OBJECT_ID":"2025-276BL","EPOCH":"2026-04-27T05:01:44.446944","MEAN_MOTION":15.20207791,"ECCENTRICITY":0.0004016,"INCLINATION":97.4199,"RA_OF_ASC_NODE":191.7892,"ARG_OF_PERICENTER":113.9126,"MEAN_ANOMALY":246.253,"EPHEMERIS_TYPE":0,"CLASSIFICATION_TYPE":"U","NORAD_CAT_ID":66724,"ELEMENT_SET_NO":999,"REV_AT_EPOCH":2194,"BSTAR":0.0003177,"MEAN_MOTION_DOT":6.819e-5,"MEAN_MOTION_DDOT":0},{"OBJECT_NAME":"FLOCK 4H-22","OBJECT_ID":"2025-276BM","EPOCH":"2026-04-27T00:37:34.764384","MEAN_MOTION":15.19529568,"ECCENTRICITY":0.0002762,"INCLINATION":97.4189,"RA_OF_ASC_NODE":191.4003,"ARG_OF_PERICENTER":173.162,"MEAN_ANOMALY":186.9653,"EPHEMERIS_TYPE":0,"CLASSIFICATION_TYPE":"U","NORAD_CAT_ID":66725,"ELEMENT_SET_NO":999,"REV_AT_EPOCH":2265,"BSTAR":0.00036057,"MEAN_MOTION_DOT":7.596e-5,"MEAN_MOTION_DDOT":0},{"OBJECT_NAME":"FLOCK 4H-23","OBJECT_ID":"2025-276BN","EPOCH":"2026-04-27T04:33:04.343040","MEAN_MOTION":15.19139483,"ECCENTRICITY":0.0005235,"INCLINATION":97.4258,"RA_OF_ASC_NODE":191.6235,"ARG_OF_PERICENTER":156.7102,"MEAN_ANOMALY":203.4371,"EPHEMERIS_TYPE":0,"CLASSIFICATION_TYPE":"U","NORAD_CAT_ID":66726,"ELEMENT_SET_NO":999,"REV_AT_EPOCH":2267,"BSTAR":0.00036805,"MEAN_MOTION_DOT":7.67e-5,"MEAN_MOTION_DDOT":0},{"OBJECT_NAME":"FLOCK 4H-24","OBJECT_ID":"2025-276BP","EPOCH":"2026-04-26T18:49:38.425728","MEAN_MOTION":15.19228474,"ECCENTRICITY":0.0004322,"INCLINATION":97.4251,"RA_OF_ASC_NODE":191.2462,"ARG_OF_PERICENTER":169.82,"MEAN_ANOMALY":190.3123,"EPHEMERIS_TYPE":0,"CLASSIFICATION_TYPE":"U","NORAD_CAT_ID":66727,"ELEMENT_SET_NO":999,"REV_AT_EPOCH":2261,"BSTAR":0.00036013091,"MEAN_MOTION_DOT":7.522e-5,"MEAN_MOTION_DDOT":0},{"OBJECT_NAME":"FLOCK 4H-25","OBJECT_ID":"2025-276BQ","EPOCH":"2026-04-27T00:37:08.760576","MEAN_MOTION":15.20092218,"ECCENTRICITY":0.0002264,"INCLINATION":97.421,"RA_OF_ASC_NODE":191.599,"ARG_OF_PERICENTER":101.4505,"MEAN_ANOMALY":258.6984,"EPHEMERIS_TYPE":0,"CLASSIFICATION_TYPE":"U","NORAD_CAT_ID":66728,"ELEMENT_SET_NO":999,"REV_AT_EPOCH":2194,"BSTAR":0.00033654,"MEAN_MOTION_DOT":7.202e-5,"MEAN_MOTION_DDOT":0},{"OBJECT_NAME":"FLOCK 4H-26","OBJECT_ID":"2025-276BR","EPOCH":"2026-04-27T04:47:36.755808","MEAN_MOTION":15.1899889,"ECCENTRICITY":0.000525,"INCLINATION":97.4208,"RA_OF_ASC_NODE":191.5144,"ARG_OF_PERICENTER":169.4467,"MEAN_ANOMALY":190.6878,"EPHEMERIS_TYPE":0,"CLASSIFICATION_TYPE":"U","NORAD_CAT_ID":66729,"ELEMENT_SET_NO":999,"REV_AT_EPOCH":2267,"BSTAR":0.00036476,"MEAN_MOTION_DOT":7.57e-5,"MEAN_MOTION_DDOT":0},{"OBJECT_NAME":"FLOCK 4H-27","OBJECT_ID":"2025-276BS","EPOCH":"2026-04-27T04:14:47.546016","MEAN_MOTION":15.19823687,"ECCENTRICITY":0.0002282,"INCLINATION":97.4184,"RA_OF_ASC_NODE":191.6528,"ARG_OF_PERICENTER":113.4112,"MEAN_ANOMALY":246.7363,"EPHEMERIS_TYPE":0,"CLASSIFICATION_TYPE":"U","NORAD_CAT_ID":66730,"ELEMENT_SET_NO":999,"REV_AT_EPOCH":2268,"BSTAR":0.00033574,"MEAN_MOTION_DOT":7.129e-5,"MEAN_MOTION_DDOT":0},{"OBJECT_NAME":"FLOCK 4H-28","OBJECT_ID":"2025-276BT","EPOCH":"2026-04-27T04:45:25.819200","MEAN_MOTION":15.19052861,"ECCENTRICITY":0.0004841,"INCLINATION":97.4194,"RA_OF_ASC_NODE":191.4928,"ARG_OF_PERICENTER":170.1588,"MEAN_ANOMALY":189.9742,"EPHEMERIS_TYPE":0,"CLASSIFICATION_TYPE":"U","NORAD_CAT_ID":66731,"ELEMENT_SET_NO":999,"REV_AT_EPOCH":2267,"BSTAR":0.0003723,"MEAN_MOTION_DOT":7.739e-5,"MEAN_MOTION_DDOT":0},{"OBJECT_NAME":"FLOCK 4H-29","OBJECT_ID":"2025-276BU","EPOCH":"2026-04-27T04:28:25.831776","MEAN_MOTION":15.19142552,"ECCENTRICITY":0.000345,"INCLINATION":97.4189,"RA_OF_ASC_NODE":191.4892,"ARG_OF_PERICENTER":173.7085,"MEAN_ANOMALY":186.4193,"EPHEMERIS_TYPE":0,"CLASSIFICATION_TYPE":"U","NORAD_CAT_ID":66732,"ELEMENT_SET_NO":999,"REV_AT_EPOCH":2267,"BSTAR":0.00034716,"MEAN_MOTION_DOT":7.229e-5,"MEAN_MOTION_DDOT":0},{"OBJECT_NAME":"FLOCK 4H-30","OBJECT_ID":"2025-276BV","EPOCH":"2026-04-27T04:24:44.597664","MEAN_MOTION":15.19222506,"ECCENTRICITY":0.000467,"INCLINATION":97.425,"RA_OF_ASC_NODE":191.6176,"ARG_OF_PERICENTER":169.0198,"MEAN_ANOMALY":191.1139,"EPHEMERIS_TYPE":0,"CLASSIFICATION_TYPE":"U","NORAD_CAT_ID":66733,"ELEMENT_SET_NO":999,"REV_AT_EPOCH":2267,"BSTAR":0.00036345,"MEAN_MOTION_DOT":7.591e-5,"MEAN_MOTION_DDOT":0},{"OBJECT_NAME":"FLOCK 4H-31","OBJECT_ID":"2025-276BW","EPOCH":"2026-04-27T04:39:50.639040","MEAN_MOTION":15.19045245,"ECCENTRICITY":0.0003977,"INCLINATION":97.4186,"RA_OF_ASC_NODE":191.4771,"ARG_OF_PERICENTER":172.7361,"MEAN_ANOMALY":187.3932,"EPHEMERIS_TYPE":0,"CLASSIFICATION_TYPE":"U","NORAD_CAT_ID":66734,"ELEMENT_SET_NO":999,"REV_AT_EPOCH":2267,"BSTAR":0.00035491,"MEAN_MOTION_DOT":7.372e-5,"MEAN_MOTION_DDOT":0},{"OBJECT_NAME":"FLOCK 4H-32","OBJECT_ID":"2025-276BX","EPOCH":"2026-04-27T04:31:03.398592","MEAN_MOTION":15.19145696,"ECCENTRICITY":0.0005128,"INCLINATION":97.4242,"RA_OF_ASC_NODE":191.5962,"ARG_OF_PERICENTER":167.2213,"MEAN_ANOMALY":192.9153,"EPHEMERIS_TYPE":0,"CLASSIFICATION_TYPE":"U","NORAD_CAT_ID":66735,"ELEMENT_SET_NO":999,"REV_AT_EPOCH":2267,"BSTAR":0.00035526,"MEAN_MOTION_DOT":7.402e-5,"MEAN_MOTION_DDOT":0}]
